      2.10          N: GNSS NAV DATA                        RINEX VERSION / TYPE
fic2rin                                 12/12/2018 00:19:33 PGM / RUN BY / DATE
                                                            END OF HEADER
29 18 12 11  4  0  0.0 3.180014900863e-04-8.185452315956e-12 0.000000000000e+00
    8.000000000000e+01-4.187500000000e+00 4.208746739767e-09 2.178635100714e+00
   -3.091990947723e-07 6.284663686529e-04 1.734122633934e-06 5.153591093063e+03
    1.872000000000e+05-8.381903171539e-08-9.618643215098e-01-4.842877388000e-08
    9.849368290867e-01 3.553437500000e+02 1.611361162357e+00-8.159625595444e-09
   -6.964575816824e-11 1.000000000000e+00 2.031000000000e+03 0.000000000000e+00
    2.400000000000e+00 0.000000000000e+00-1.024454832077e-08 8.000000000000e+01
    1.800060000000e+05 4.000000000000e+00
20 18 12 11  4  0  0.0 5.197976715863e-04 4.547473508865e-13 0.000000000000e+00
    1.130000000000e+02-3.231250000000e+01 4.993779439530e-09-8.353621159566e-01
   -1.665204763412e-06 4.484807257541e-03 9.573996067047e-06 5.153670625687e+03
    1.872000000000e+05-1.154839992523e-07 9.538567848552e-01 1.862645149231e-08
    9.293905917972e-01 1.808437500000e+02 2.200007821831e+00-8.119266771480e-09
    4.268034923643e-10 1.000000000000e+00 2.031000000000e+03 0.000000000000e+00
    2.400000000000e+00 0.000000000000e+00-8.381903171539e-09 1.130000000000e+02
    1.800060000000e+05 4.000000000000e+00
28 18 12 11  4  0  0.0 7.580504752696e-04 1.477928890381e-12 0.000000000000e+00
    8.100000000000e+01 1.180000000000e+02 3.803729869188e-09 2.438877329739e+00
    5.951151251793e-06 1.961943693459e-02 6.336718797684e-06 5.153701593399e+03
    1.872000000000e+05 2.421438694000e-07-1.983829804486e+00-8.940696716309e-08
    9.838972458524e-01 2.642500000000e+02-1.489657032595e+00-7.458882120951e-09
    4.857345185067e-11 1.000000000000e+00 2.031000000000e+03 0.000000000000e+00
    3.400000000000e+00 0.000000000000e+00-1.117587089539e-08 8.100000000000e+01
    1.800060000000e+05 4.000000000000e+00
31 18 12 11  3 59 44.0 7.368298247457e-05-2.614797267597e-12 0.000000000000e+00
    0.000000000000e+00 1.175000000000e+01 4.467686097059e-09-1.589103514780e+00
    2.849847078323e-07 9.131418424658e-03 9.350478649139e-06 5.153796716690e+03
    1.871840000000e+05-3.725290298462e-08-3.090002707084e+00-1.415610313416e-07
    9.618324401361e-01 2.001875000000e+02-5.956041720473e-02-7.877113827695e-09
   -2.510818871398e-10 1.000000000000e+00 2.031000000000e+03 0.000000000000e+00
    2.400000000000e+00 0.000000000000e+00-1.350417733192e-08 0.000000000000e+00
    1.807260000000e+05 4.000000000000e+00
23 18 12 11  3 59 44.0-2.038716338575e-04 1.023181539495e-12 0.000000000000e+00
    2.100000000000e+01 6.437500000000e+00 5.262719213379e-09 1.598745473252e-01
    4.675239324570e-07 1.263498107437e-02 5.550682544708e-06 5.153671112061e+03
    1.871840000000e+05-3.911554813385e-08 2.099717945429e+00 2.477318048477e-07
    9.430166043125e-01 2.644062500000e+02-2.315890801599e+00-8.509283017222e-09
    2.392956819114e-11 1.000000000000e+00 2.031000000000e+03 0.000000000000e+00
    2.400000000000e+00 0.000000000000e+00-2.002343535423e-08 2.100000000000e+01
    1.812960000000e+05 4.000000000000e+00
18 18 12 11  3 59 44.0 4.213303327560e-06 3.979039320257e-12 0.000000000000e+00
    3.800000000000e+01-9.803125000000e+01 4.699838624286e-09-8.351763765627e-01
   -5.055218935013e-06 1.495770749170e-02 6.949529051781e-06 5.153618431091e+03
    1.871840000000e+05-2.104789018631e-07-2.375787006779e-02 1.993030309677e-07
    9.524361217017e-01 2.413750000000e+02 1.365735579843e+00-8.390706649469e-09
   -1.717928701483e-10 1.000000000000e+00 2.031000000000e+03 0.000000000000e+00
    2.400000000000e+00 0.000000000000e+00-6.519258022308e-09 3.800000000000e+01
    1.831560000000e+05 4.000000000000e+00
 8 18 12 11  3 59 44.0-1.251711510122e-04-1.364242052659e-12 0.000000000000e+00
    2.200000000000e+01-1.468750000000e+00 4.578047836925e-09 1.953381445355e+00
    1.173466444016e-07 3.919523442164e-03 1.564621925354e-06 5.153668104172e+03
    1.871840000000e+05 1.396983861923e-07-1.037993077401e+00 6.332993507385e-08
    9.698689952338e-01 3.516250000000e+02-4.071105276161e-01-8.334632885200e-09
   -7.893185925733e-11 1.000000000000e+00 2.031000000000e+03 0.000000000000e+00
    2.400000000000e+00 0.000000000000e+00 5.122274160385e-09 2.200000000000e+01
    1.866660000000e+05 4.000000000000e+00
 3 18 12 11  3 59 44.0 1.685116440058e-04 3.296918293927e-12 0.000000000000e+00
    0.000000000000e+00-1.031250000000e+01 4.347323940635e-09-1.732227793463e+00
   -4.991888999939e-07 1.860847347416e-03 9.668990969658e-06 5.153622894287e+03
    1.871840000000e+05-1.862645149231e-09 1.070002943586e+00-1.043081283569e-07
    9.617366819074e-01 1.957500000000e+02 7.075439892586e-01-7.769966507436e-09
    3.750156209059e-10 1.000000000000e+00 2.031000000000e+03 0.000000000000e+00
    2.400000000000e+00 0.000000000000e+00 2.328306436539e-09 0.000000000000e+00
    1.866960000000e+05 4.000000000000e+00
 3 18 12 11  5 59 44.0 1.685353927314e-04 3.296918293927e-12 0.000000000000e+00
    1.400000000000e+01-1.796875000000e+01 4.409112228651e-09-6.813474113460e-01
   -1.048669219017e-06 1.861394150183e-03 9.259209036827e-06 5.153625461578e+03
    1.943840000000e+05 3.725290298462e-08 1.069946984044e+00 1.490116119385e-08
    9.617387621769e-01 2.018437500000e+02 7.068736714172e-01-7.867113411137e-09
    3.189418566371e-10 1.000000000000e+00 2.031000000000e+03 0.000000000000e+00
    2.400000000000e+00 0.000000000000e+00 2.328306436539e-09 1.400000000000e+01
    1.872060000000e+05 4.000000000000e+00
 8 18 12 11  5 59 44.0-1.251804642379e-04-1.364242052659e-12 0.000000000000e+00
    2.300000000000e+01 8.531250000000e+00 4.584833833875e-09 3.003696969932e+00
    5.476176738739e-07 3.920697141439e-03 1.622363924980e-06 5.153665769577e+03
    1.943840000000e+05-8.754432201385e-08-1.038053662690e+00 8.568167686462e-08
    9.698693375566e-01 3.523437500000e+02-4.072404054832e-01-8.231057142283e-09
    8.143196339671e-11 1.000000000000e+00 2.031000000000e+03 0.000000000000e+00
    2.400000000000e+00 0.000000000000e+00 5.122274160385e-09 2.300000000000e+01
    1.872060000000e+05 4.000000000000e+00
31 18 12 11  5 59 44.0 7.366389036179e-05-2.614797267597e-12 0.000000000000e+00
    1.000000000000e+00 1.618750000000e+01 4.439113478323e-09-5.391120909254e-01
    8.512288331985e-07 9.131023078226e-03 8.720904588699e-06 5.153794599533e+03
    1.943840000000e+05 1.378357410431e-07-3.090058994320e+00-1.229345798492e-07
    9.618300877639e-01 2.068750000000e+02-5.944617500609e-02-7.961045895231e-09
   -3.610864692722e-10 1.000000000000e+00 2.031000000000e+03 0.000000000000e+00
    2.400000000000e+00 0.000000000000e+00-1.350417733192e-08 1.000000000000e+00
    1.872060000000e+05 4.000000000000e+00
23 18 12 11  5 59 44.0-2.038637176156e-04 1.023181539495e-12 0.000000000000e+00
    2.500000000000e+01 6.687500000000e+00 5.247718588543e-09 1.210009452722e+00
    4.507601261139e-07 1.263572997414e-02 6.077811121941e-06 5.153673028946e+03
    1.943840000000e+05-1.844018697739e-07 2.099657502043e+00 1.061707735062e-07
    9.430162239538e-01 2.574375000000e+02-2.315838892877e+00-8.464638300447e-09
   -1.000041655749e-10 1.000000000000e+00 2.031000000000e+03 0.000000000000e+00
    2.400000000000e+00 0.000000000000e+00-2.002343535423e-08 2.500000000000e+01
    1.872060000000e+05 4.000000000000e+00
18 18 12 11  5 59 44.0 4.242174327374e-06 3.979039320257e-12 0.000000000000e+00
    8.200000000000e+01-1.013750000000e+02 4.759841123631e-09 2.150456002553e-01
   -5.260109901428e-06 1.495651970617e-02 6.522983312607e-06 5.153616296768e+03
    1.943840000000e+05-2.011656761169e-07-2.381864992523e-02 2.607703208923e-08
    9.524348913876e-01 2.509687500000e+02 1.365729940294e+00-8.438208628117e-09
   -1.860791795162e-10 1.000000000000e+00 2.031000000000e+03 0.000000000000e+00
    2.400000000000e+00 0.000000000000e+00-6.519258022308e-09 8.200000000000e+01
    1.872060000000e+05 4.000000000000e+00
 2 18 12 11  6  0  0.0-8.253660053015e-05-1.034550223267e-11 0.000000000000e+00
    5.200000000000e+01-1.054062500000e+02 4.764484174176e-09 7.656145253409e-01
   -5.526468157768e-06 1.855557819363e-02 7.359310984612e-06 5.153613958359e+03
    1.944000000000e+05-2.700835466385e-07-3.757548535265e-02 3.166496753693e-08
    9.530660527638e-01 2.412812500000e+02-1.807094228065e+00-8.522855011121e-09
   -3.014411276615e-10 1.000000000000e+00 2.031000000000e+03 0.000000000000e+00
    2.400000000000e+00 0.000000000000e+00-2.048909664154e-08 5.200000000000e+01
    1.872060000000e+05 4.000000000000e+00
 1 18 12 11  6  0  0.0-1.271413639188e-04-5.798028723802e-12 0.000000000000e+00
    9.400000000000e+01-1.013437500000e+02 4.189460222120e-09 4.286700150953e-01
   -5.191192030907e-06 8.196998154745e-03 7.081776857376e-06 5.153668054581e+03
    1.944000000000e+05 1.862645149231e-09 2.764510234091e-02 1.005828380585e-07
    9.739744275901e-01 2.480312500000e+02 6.954767700848e-01-8.018905448170e-09
   -1.903650723265e-10 1.000000000000e+00 2.031000000000e+03 0.000000000000e+00
    2.400000000000e+00 0.000000000000e+00 5.587935447693e-09 9.400000000000e+01
    1.872060000000e+05 4.000000000000e+00
 5 18 12 11  6  0  0.0 3.245659172535e-07 2.273736754432e-13 0.000000000000e+00
    2.600000000000e+01-1.753125000000e+01 4.647693595094e-09-2.944750668182e+00
   -9.406358003616e-07 5.570147885010e-03 9.933486580849e-06 5.153591913223e+03
    1.944000000000e+05-3.725290298462e-09 1.045399272802e+00-3.352761268616e-08
    9.486367025493e-01 1.815625000000e+02 7.238868176601e-01-7.893543083468e-09
    4.139458139333e-10 1.000000000000e+00 2.031000000000e+03 0.000000000000e+00
    2.400000000000e+00 0.000000000000e+00-1.117587089539e-08 2.600000000000e+01
    1.872060000000e+05 4.000000000000e+00
